[
    {
        "Altitude(m)": 607886.668564839,
        "Argument of Periapsis(deg)": 0.0,
        "Eccentricity": 0.0,
        "Inclination(deg)": 60.0,
        "Latitude(deg)": 40.99838167046032,
        "Longitude(deg)": -110.0270130529359,
        "Mean Anomaly(deg)": -310.9091,
        "RAAN(deg)": 320.0,
        "Satellite Name": "Test1 1411",
        "Satellite Number": 1411,
        "Semi-Major Axis(m)": 6980739.136638005,
        "Time(s)": 0
    },
    {
        "Altitude(m)": 607987.5825297243,
        "Argument of Periapsis(deg)": 0.00010418945913296404,
        "Eccentricity": 0.0,
        "Inclination(deg)": 60.0,
        "Latitude(deg)": 41.463471679703126,
        "Longitude(deg)": -109.52278553798311,
        "Mean Anomaly(deg)": -310.28899385453815,
        "RAAN(deg)": 319.9995799508602,
        "Satellite Name": "Test1 1411",
        "Satellite Number": 1411,
        "Semi-Major Axis(m)": 6980739.136638005,
        "Time(s)": 10
    }
]